[{"OBJECT_NAME":"STARLINK-33998","OBJECT_ID":"2025-098AB","EPOCH":"2026-03-09T21:14:05.678016","MEAN_MOTION":14.98318546,"ECCENTRICITY":0.00028007,"INCLINATION":70.0003,"RA_OF_ASC_NODE":273.8837,"ARG_OF_PERICENTER":263.9034,"MEAN_ANOMALY":96.1806,"EPHEMERIS_TYPE":0,"CLASSIFICATION_TYPE":"U","NORAD_CAT_ID":63951,"ELEMENT_SET_NO":999,"REV_AT_EPOCH":4658,"BSTAR":-0.00016876165,"MEAN_MOTION_DOT":-2.105e-5,"MEAN_MOTION_DDOT":0},{"OBJECT_NAME":"FENGYUN 1C DEB","OBJECT_ID":"1999-025AEY","EPOCH":"2026-03-09T19:16:38.619264","MEAN_MOTION":14.92699645,"ECCENTRICITY":0.00328142,"INCLINATION":98.9116,"RA_OF_ASC_NODE":104.6855,"ARG_OF_PERICENTER":181.0852,"MEAN_ANOMALY":235.9591,"EPHEMERIS_TYPE":0,"CLASSIFICATION_TYPE":"U","NORAD_CAT_ID":30437,"ELEMENT_SET_NO":999,"REV_AT_EPOCH":482,"BSTAR":0.0024447577,"MEAN_MOTION_DOT":0.00025496,"MEAN_MOTION_DDOT":0}]
